     2.10           N: GPS NAV DATA                         RINEX VERSION / TYPE
Alloy 6.23          SMO                 20250420 010259 UTC PGM / RUN BY / DATE
gfzrnx-2.1.12       FILE PROCESSING     20250424 043357 UTC COMMENT             
     .2794E-07   .1490E-07  -.1192E-06  -.5960E-07          ION ALPHA           
     .1290E+06   .3277E+05  -.2621E+06   .2621E+06          ION BETA            
     .931322574615D-09  .621724893790D-14   147456     2363 DELTA-UTC: A0,A1,T,W
    18                                                      LEAP SECONDS        
                                                            END OF HEADER
16 25 04 20 01 59 44.0 -.312319025397e-05  .875388650456e-11  .000000000000e+00
     .100000000000e+02  .268437500000e+02  .441839832974e-08  .253921872426e+01
     .119768083096e-05  .144789462211e-01  .800006091595e-05  .515372343063e+04
     .718400000000e+04  .111758708954e-07  .410369180564e+00 -.191852450371e-06
     .960102715058e+00  .224187500000e+03  .883591256871e+00 -.771139263903e-08
    -.275725770799e-09  .100000000000e+01  .236300000000e+04  .000000000000e+00
     .200000000000e+01  .000000000000e+00 -.102445483208e-07  .100000000000e+02
     .150600000000e+04  .400000000000e+01                                      
16 25 04 20 02 00  0.0 -.312319025397e-05  .875388650456e-11  .000000000000e+00
     .970000000000e+02  .268437500000e+02  .441839832974e-08  .254155234631e+01
     .119768083096e-05  .144789465703e-01  .800006091595e-05  .515372342491e+04
     .720000000000e+04  .111758708954e-07  .410369044512e+00 -.191852450371e-06
     .960102694577e+00  .224187500000e+03  .883591379756e+00 -.771139263903e-08
    -.275368613065e-09  .100000000000e+01  .236300000000e+04  .000000000000e+00
     .280000000000e+01  .000000000000e+00 -.102445483208e-07  .970000000000e+02
     .180000000000e+02  .400000000000e+01                                      
17 25 04 20 02 00  0.0  .320121180266e-03 -.184172677109e-10  .000000000000e+00
     .800000000000e+01  .824375000000e+02  .416481633846e-08  .154142947520e+01
     .422634184361e-05  .130730556557e-01  .742450356483e-05  .515367108727e+04
     .720000000000e+04  .273808836937e-06  .143030659387e+01 -.234693288803e-06
     .963740623665e+00  .233562500000e+03 -.121888422038e+01 -.780568228086e-08
    -.596453416107e-10  .100000000000e+01  .236300000000e+04  .000000000000e+00
     .200000000000e+01  .000000000000e+00 -.111758708954e-07  .800000000000e+01
     .112200000000e+04  .400000000000e+01                                      
26 25 04 19 23 59 44.0 -.195211730897e-03 -.204636307899e-10  .000000000000e+00
     .100000000000e+01  .186562500000e+02  .521950312754e-08  .223712152100e+01
     .866129994392e-06  .997916341294e-02  .778026878834e-05  .515355219460e+04
     .604784000000e+06 -.167638063431e-06  .354617232123e+00 -.102445483208e-06
     .929771930653e+00  .214031250000e+03  .630614206722e+00 -.821712799065e-08
    -.235366946835e-09  .100000000000e+01  .236200000000e+04  .000000000000e+00
     .200000000000e+01  .000000000000e+00  .651925802231e-08  .100000000000e+01
     .600258000000e+06  .400000000000e+01                                      
26 25 04 20 01 59 44.0 -.195359345526e-03 -.204636307899e-10  .000000000000e+00
     .100000000000e+02  .194687500000e+02  .518878756240e-08 -.299582397639e+01
     .957399606705e-06  .997879693750e-02  .756792724133e-05  .515355296326e+04
     .718400000000e+04 -.204890966415e-07  .234143156065e+00 -.128522515297e-06
     .929770542344e+00  .217031250000e+03  .630634130203e+00 -.815391107170e-08
    -.217866217860e-09  .100000000000e+01  .236300000000e+04  .000000000000e+00
     .200000000000e+01  .000000000000e+00  .651925802231e-08  .100000000000e+02
     .145200000000e+04  .400000000000e+01                                      
27 25 04 20 00 00  0.0 -.274465419352e-04  .682121026330e-12  .000000000000e+00
     .182000000000e+03  .758125000000e+02  .452233123039e-08  .555708937496e+00
     .390224158764e-05  .134990249062e-01  .729598104954e-05  .515369264603e+04
     .000000000000e+00 -.137835741043e-06  .135980766316e+01  .147148966789e-06
     .957052355312e+00  .239468750000e+03  .840957755666e+00 -.817105464294e-08
    -.182150444440e-09  .100000000000e+01  .236300000000e+04  .000000000000e+00
     .200000000000e+01  .000000000000e+00  .232830643654e-08  .182000000000e+03
    -.718200000000e+04  .400000000000e+01                                      
27 25 04 20 02 00  0.0 -.274414196610e-04  .682121026330e-12  .000000000000e+00
     .184000000000e+03  .670312500000e+02  .443661337418e-08  .160577189366e+01
     .341609120369e-05  .134996107081e-01  .758469104767e-05  .515369556618e+04
     .720000000000e+04 -.251457095146e-06  .135974870464e+01  .372529029846e-08
     .957051060630e+00  .232812500000e+03  .841063271558e+00 -.810605193531e-08
    -.160363822654e-09  .100000000000e+01  .236300000000e+04  .000000000000e+00
     .200000000000e+01  .000000000000e+00  .232830643654e-08  .184000000000e+03
     .180000000000e+02  .400000000000e+01                                      
30 25 04 19 23 59 44.0 -.165592879057e-03  .943600753089e-11  .000000000000e+00
     .170000000000e+02 -.155625000000e+02  .509949812885e-08 -.252714114324e+01
    -.923871994019e-06  .763281167019e-02  .763311982155e-05  .515369589043e+04
     .604784000000e+06  .633299350739e-07 -.607027350314e+00 -.894069671631e-07
     .935681136612e+00  .217718750000e+03 -.238820211080e+01 -.806319300721e-08
     .148934775160e-09  .100000000000e+01  .236200000000e+04  .000000000000e+00
     .200000000000e+01  .000000000000e+00  .372529029846e-08  .170000000000e+02
     .604458000000e+06  .400000000000e+01                                      
30 25 04 20 02 00  0.0 -.165524892509e-03  .943600753089e-11  .000000000000e+00
     .190000000000e+02 -.103125000000e+02  .514521431883e-08 -.147476765573e+01
    -.618398189545e-06  .763321644627e-02  .728666782379e-05  .515369384003e+04
     .720000000000e+04  .178813934326e-06 -.727500585194e+00 -.521540641785e-07
     .935682056788e+00  .223437500000e+03 -.238806988056e+01 -.811212361680e-08
     .101789954246e-09  .100000000000e+01  .236300000000e+04  .000000000000e+00
     .200000000000e+01  .000000000000e+00  .372529029846e-08  .190000000000e+02
     .180000000000e+02  .400000000000e+01                                      
